{"type": "FeatureCollection", "features": [ {"type": "Feature", "properties": {"norad_id": 35139, "name": "FENGYUN 1C DEB", "group": "fengyun-1c-debris", "lat": 78.8324641285476, "lon": -132.5698267789371, "alt_km": 863.0738360030073, "timestamp": "2025-12-18T10:51:26.095152+00:00", "meta": {"OBJECT_NAME": "FENGYUN 1C DEB", "OBJECT_ID": "1999-025DLT", "EPOCH": "2025-12-17T05:40:19.572096", "MEAN_MOTION": 14.2110105, "ECCENTRICITY": 0.0067913, "INCLINATION": 98.584, "RA_OF_ASC_NODE": 356.3312, "ARG_OF_PERICENTER": 284.2558, "MEAN_ANOMALY": 75.1083, "EPHEMERIS_TYPE": 0, "CLASSIFICATION_TYPE": "U", "NORAD_CAT_ID": 35139, "ELEMENT_SET_NO": 999, "REV_AT_EPOCH": 64217, "BSTAR": 0.0003366611, "MEAN_MOTION_DOT": 7.05e-06, "MEAN_MOTION_DDOT": 0}, "tle": {"line1": "1 35139U 99025DLT 25351.23633764  .00000705  00000+0  33666-3 0  9994", "line2": "2 35139  98.5840 356.3312 0067913 284.2558  75.1083 14.21101050642179"}}, "geometry": {"type": "Point", "coordinates": [-132.5698267789371, 78.8324641285476]}}, {"type": "Feature", "properties": {"norad_id": 35140, "name": "FENGYUN 1C DEB", "group": "fengyun-1c-debris", "lat": -6.968788659297157, "lon": 152.54555621617106, "alt_km": 934.3937470753363, "timestamp": "2025-12-18T10:51:26.095162+00:00", "meta": {"OBJECT_NAME": "FENGYUN 1C DEB", "OBJECT_ID": "1999-025DLU", "EPOCH": "2025-12-14T04:35:17.926080", "MEAN_MOTION": 14.21349423, "ECCENTRICITY": 0.02906296, "INCLINATION": 98.4433, "RA_OF_ASC_NODE": 329.5041, "ARG_OF_PERICENTER": 322.4095, "MEAN_ANOMALY": 35.7077, "EPHEMERIS_TYPE": 0, "CLASSIFICATION_TYPE": "U", "NORAD_CAT_ID": 35140, "ELEMENT_SET_NO": 999, "REV_AT_EPOCH": 87299, "BSTAR": 0.00031148467, "MEAN_MOTION_DOT": 9.92e-06, "MEAN_MOTION_DDOT": 0}, "tle": {"line1": "1 35140U 99025DLU 25348.19117970  .00000992  00000+0  31148-3 0  9994", "line2": "2 35140  98.4433 329.5041 0290629 322.4095  35.7077 14.21349423872990"}}, "geometry": {"type": "Point", "coordinates": [152.54555621617106, -6.968788659297157]}}, {"type": "Feature", "properties": {"norad_id": 35142, "name": "FENGYUN 1C DEB", "group": "fengyun-1c-debris", "lat": -29.91918085391659, "lon": 159.1951641667931, "alt_km": 855.559112036718, "timestamp": "2025-12-18T10:51:26.095172+00:00", "meta": {"OBJECT_NAME": "FENGYUN 1C DEB", "OBJECT_ID": "1999-025DLW", "EPOCH": "2025-12-16T06:06:10.234368", "MEAN_MOTION": 13.90508934, "ECCENTRICITY": 0.01077729, "INCLINATION": 99.0452, "RA_OF_ASC_NODE": 342.3158, "ARG_OF_PERICENTER": 204.4667, "MEAN_ANOMALY": 168.1585, "EPHEMERIS_TYPE": 0, "CLASSIFICATION_TYPE": "U", "NORAD_CAT_ID": 35142, "ELEMENT_SET_NO": 999, "REV_AT_EPOCH": 85738, "BSTAR": 0.00020062048, "MEAN_MOTION_DOT": 2.18e-06, "MEAN_MOTION_DDOT": 0}, "tle": {"line1": "1 35142U 99025DLW 25350.25428512  .00000218  00000+0  20062-3 0  9997", "line2": "2 35142  99.0452 342.3158 0107772 204.4667 168.1585 13.90508934857382"}}, "geometry": {"type": "Point", "coordinates": [159.1951641667931, -29.91918085391659]}}, {"type": "Feature", "properties": {"norad_id": 35144, "name": "FENGYUN 1C DEB", "group": "fengyun-1c-debris", "lat": 78.85831293747364, "lon": 57.04725337618018, "alt_km": 691.0717025387567, "timestamp": "2025-12-18T10:51:26.095182+00:00", "meta": {"OBJECT_NAME": "FENGYUN 1C DEB", "OBJECT_ID": "1999-025DLY", "EPOCH": "2025-12-15T03:29:25.584864", "MEAN_MOTION": 14.59259684, "ECCENTRICITY": 0.00266192, "INCLINATION": 98.6997, "RA_OF_ASC_NODE": 104.611, "ARG_OF_PERICENTER": 353.8009, "MEAN_ANOMALY": 6.2856, "EPHEMERIS_TYPE": 0, "CLASSIFICATION_TYPE": "U", "NORAD_CAT_ID": 35144, "ELEMENT_SET_NO": 999, "REV_AT_EPOCH": 65248, "BSTAR": 0.0015089834, "MEAN_MOTION_DOT": 7.114e-05, "MEAN_MOTION_DDOT": 0}, "tle": {"line1": "1 35144U 99025DLY 25349.14543501  .00007114  00000+0  15090-2 0  9997", "line2": "2 35144  98.6997 104.6110 0026619 353.8009   6.2856 14.59259684652487"}}, "geometry": {"type": "Point", "coordinates": [57.04725337618018, 78.85831293747364]}}, {"type": "Feature", "properties": {"norad_id": 35147, "name": "FENGYUN 1C DEB", "group": "fengyun-1c-debris", "lat": -43.323687572722015, "lon": -122.3594397676336, "alt_km": 639.0728275573947, "timestamp": "2025-12-18T10:51:26.095194+00:00", "meta": {"OBJECT_NAME": "FENGYUN 1C DEB", "OBJECT_ID": "1999-025DMB", "EPOCH": "2025-12-17T15:55:48.065664", "MEAN_MOTION": 14.7444488, "ECCENTRICITY": 0.00275124, "INCLINATION": 99.4861, "RA_OF_ASC_NODE": 65.7917, "ARG_OF_PERICENTER": 184.4775, "MEAN_ANOMALY": 175.6187, "EPHEMERIS_TYPE": 0, "CLASSIFICATION_TYPE": "U", "NORAD_CAT_ID": 35147, "ELEMENT_SET_NO": 999, "REV_AT_EPOCH": 74377, "BSTAR": 0.0017741482, "MEAN_MOTION_DOT": 0.00011805, "MEAN_MOTION_DDOT": 0}, "tle": {"line1": "1 35147U 99025DMB 25351.66375076  .00011805  00000+0  17741-2 0  9997", "line2": "2 35147  99.4861  65.7917 0027512 184.4775 175.6187 14.74444880743774"}}, "geometry": {"type": "Point", "coordinates": [-122.3594397676336, -43.323687572722015]}}, {"type": "Feature", "properties": {"norad_id": 35152, "name": "FENGYUN 1C DEB", "group": "fengyun-1c-debris", "lat": 71.51426264571711, "lon": 26.523269141755467, "alt_km": 1004.0114118914953, "timestamp": "2025-12-18T10:51:26.095205+00:00", "meta": {"OBJECT_NAME": "FENGYUN 1C DEB", "OBJECT_ID": "1999-025DMG", "EPOCH": "2025-12-16T18:13:57.032832", "MEAN_MOTION": 13.7643783, "ECCENTRICITY": 0.01945259, "INCLINATION": 99.8194, "RA_OF_ASC_NODE": 173.5777, "ARG_OF_PERICENTER": 5.0809, "MEAN_ANOMALY": 355.2255, "EPHEMERIS_TYPE": 0, "CLASSIFICATION_TYPE": "U", "NORAD_CAT_ID": 35152, "ELEMENT_SET_NO": 999, "REV_AT_EPOCH": 62248, "BSTAR": 0.00057948786, "MEAN_MOTION_DOT": 6.03e-06, "MEAN_MOTION_DDOT": 0}, "tle": {"line1": "1 35152U 99025DMG 25350.75968788  .00000603  00000+0  57949-3 0  9999", "line2": "2 35152  99.8194 173.5777 0194525   5.0809 355.2255 13.76437830622484"}}, "geometry": {"type": "Point", "coordinates": [26.523269141755467, 71.51426264571711]}}, {"type": "Feature", "properties": {"norad_id": 35153, "name": "FENGYUN 1C DEB", "group": "fengyun-1c-debris", "lat": 16.943470483239867, "lon": 67.54931707864633, "alt_km": 662.9249229640527, "timestamp": "2025-12-18T10:51:26.095216+00:00", "meta": {"OBJECT_NAME": "FENGYUN 1C DEB", "OBJECT_ID": "1999-025DMH", "EPOCH": "2025-12-15T23:28:42.248928", "MEAN_MOTION": 14.73754659, "ECCENTRICITY": 0.01711481, "INCLINATION": 98.903, "RA_OF_ASC_NODE": 242.0971, "ARG_OF_PERICENTER": 73.1296, "MEAN_ANOMALY": 288.8599, "EPHEMERIS_TYPE": 0, "CLASSIFICATION_TYPE": "U", "NORAD_CAT_ID": 35153, "ELEMENT_SET_NO": 999, "REV_AT_EPOCH": 97265, "BSTAR": 0.00026510273, "MEAN_MOTION_DOT": 2.12e-05, "MEAN_MOTION_DDOT": 0}, "tle": {"line1": "1 35153U 99025DMH 25349.97826677  .00002120  00000+0  26510-3 0  9998", "line2": "2 35153  98.9030 242.0971 0171148  73.1296 288.8599 14.73754659972652"}}, "geometry": {"type": "Point", "coordinates": [67.54931707864633, 16.943470483239867]}}, {"type": "Feature", "properties": {"norad_id": 35154, "name": "FENGYUN 1C DEB", "group": "fengyun-1c-debris", "lat": 59.19702503472323, "lon": 98.11961840649192, "alt_km": 715.6365188484433, "timestamp": "2025-12-18T10:51:26.095227+00:00", "meta": {"OBJECT_NAME": "FENGYUN 1C DEB", "OBJECT_ID": "1999-025DMJ", "EPOCH": "2025-12-14T01:39:24.585984", "MEAN_MOTION": 14.18900379, "ECCENTRICITY": 0.01792994, "INCLINATION": 99.4217, "RA_OF_ASC_NODE": 109.6332, "ARG_OF_PERICENTER": 38.7298, "MEAN_ANOMALY": 322.6573, "EPHEMERIS_TYPE": 0, "CLASSIFICATION_TYPE": "U", "NORAD_CAT_ID": 35154, "ELEMENT_SET_NO": 999, "REV_AT_EPOCH": 64596, "BSTAR": 0.00037357522, "MEAN_MOTION_DOT": 8.63e-06, "MEAN_MOTION_DDOT": 0}, "tle": {"line1": "1 35154U 99025DMJ 25348.06903456  .00000863  00000+0  37358-3 0  9993", "line2": "2 35154  99.4217 109.6332 0179299  38.7298 322.6573 14.18900379645960"}}, "geometry": {"type": "Point", "coordinates": [98.11961840649192, 59.19702503472323]}}, {"type": "Feature", "properties": {"norad_id": 35155, "name": "FENGYUN 1C DEB", "group": "fengyun-1c-debris", "lat": -7.899647423675721, "lon": -177.2977767047013, "alt_km": 844.0315689020408, "timestamp": "2025-12-18T10:51:26.095237+00:00", "meta": {"OBJECT_NAME": "FENGYUN 1C DEB", "OBJECT_ID": "1999-025DMK", "EPOCH": "2025-12-13T11:32:29.448096", "MEAN_MOTION": 14.19285709, "ECCENTRICITY": 0.00260991, "INCLINATION": 98.5012, "RA_OF_ASC_NODE": 359.121, "ARG_OF_PERICENTER": 70.7543, "MEAN_ANOMALY": 289.6454, "EPHEMERIS_TYPE": 0, "CLASSIFICATION_TYPE": "U", "NORAD_CAT_ID": 35155, "ELEMENT_SET_NO": 999, "REV_AT_EPOCH": 72724, "BSTAR": 0.00090034288, "MEAN_MOTION_DOT": 1.854e-05, "MEAN_MOTION_DDOT": 0}, "tle": {"line1": "1 35155U 99025DMK 25347.48089639  .00001854  00000+0  90034-3 0  9998", "line2": "2 35155  98.5012 359.1210 0026099  70.7543 289.6454 14.19285709727245"}}, "geometry": {"type": "Point", "coordinates": [-177.2977767047013, -7.899647423675721]}}, {"type": "Feature", "properties": {"norad_id": 35156, "name": "FENGYUN 1C DEB", "group": "fengyun-1c-debris", "lat": 81.23990736394134, "lon": -110.05729483371044, "alt_km": 829.9341316634063, "timestamp": "2025-12-18T10:51:26.095248+00:00", "meta": {"OBJECT_NAME": "FENGYUN 1C DEB", "OBJECT_ID": "1999-025DML", "EPOCH": "2025-12-12T16:32:42.860544", "MEAN_MOTION": 14.10626157, "ECCENTRICITY": 0.00370025, "INCLINATION": 98.7527, "RA_OF_ASC_NODE": 333.1123, "ARG_OF_PERICENTER": 148.5895, "MEAN_ANOMALY": 211.7497, "EPHEMERIS_TYPE": 0, "CLASSIFICATION_TYPE": "U", "NORAD_CAT_ID": 35156, "ELEMENT_SET_NO": 999, "REV_AT_EPOCH": 64043, "BSTAR": 0.00049181464, "MEAN_MOTION_DOT": 8.41e-06, "MEAN_MOTION_DDOT": 0}, "tle": {"line1": "1 35156U 99025DML 25346.68938496  .00000841  00000+0  49181-3 0  9996", "line2": "2 35156  98.7527 333.1123 0037002 148.5895 211.7497 14.10626157640439"}}, "geometry": {"type": "Point", "coordinates": [-110.05729483371044, 81.23990736394134]}}]}